NORAD_CAT_ID,OBJECT_NAME,OBJECT_TYPE,EPOCH,MEAN_MOTION,ECCENTRICITY,INCLINATION,RA_OF_ASC_NODE,ARG_OF_PERICENTER,MEAN_ANOMALY,BSTAR,MEAN_MOTION_DOT,MEAN_MOTION_DDOT,TLE_LINE0,TLE_LINE1,TLE_LINE2,SEMIMAJOR_AXIS,PERIOD,APOGEE,PERIGEE,DECAYED
56450.0,STARLINK-5970,PAYLOAD,2024-02-13 15:01:12,14.98328948,0.0002568,69.9989,248.2871,262.4785,97.6082,-1.7093e-05,-2.97e-06,0.0,0 STARLINK-5970,1 56450U 23064C   24044.62583384 -.00000297  00000-0 -17093-4 0  9992,2 56450  69.9989 248.2871 0002568 262.4785  97.6082 14.98328948 42148,6950.196,96.107,573.846,570.276,0.0
56450.0,STARLINK-5970,PAYLOAD,2024-02-13 21:25:44,14.98328808,0.0002612,69.9985,247.613,267.3394,92.7467,-1.7277e-05,-2.99e-06,0.0,0 STARLINK-5970,1 56450U 23064C   24044.89287428 -.00000299  00000-0 -17277-4 0  9997,2 56450  69.9985 247.6130 0002612 267.3394  92.7467 14.98328808 42187,6950.197,96.107,573.877,570.246,0.0
56450.0,STARLINK-5970,PAYLOAD,2024-02-14 07:02:32,14.98329709,0.0002637,69.9985,246.603,267.7952,92.2906,1.8335e-05,1.26e-06,0.0,0 STARLINK-5970,1 56450U 23064C   24045.29343265  .00000126  00000-0  18335-4 0  9997,2 56450  69.9985 246.6030 0002637 267.7952  92.2906 14.98329709 42607,6950.194,96.107,573.892,570.226,0.0
56450.0,STARLINK-5970,PAYLOAD,2024-02-14 15:03:12,14.98330404,0.0002674,69.9983,245.7614,268.338,91.7473,2.5725e-05,2.14e-06,0.0,0 STARLINK-5970,1 56450U 23064C   24045.62723183  .00000214  00000-0  25725-4 0  9994,2 56450  69.9983 245.7614 0002674 268.3380  91.7473 14.98330404 42298,6950.192,96.107,573.915,570.198,0.0
56450.0,STARLINK-5970,PAYLOAD,2024-02-14 21:27:44,14.98331604,0.0002677,69.9983,245.0886,269.6158,90.4694,3.8768e-05,3.7e-06,0.0,0 STARLINK-5970,1 56450U 23064C   24045.89427066  .00000370  00000-0  38768-4 0  9998,2 56450  69.9983 245.0886 0002677 269.6158  90.4694 14.98331604 42331,6950.188,96.107,573.913,570.192,0.0
56450.0,STARLINK-5970,PAYLOAD,2024-02-15 07:04:33,14.98328204,0.0002649,69.9983,244.0784,269.9388,90.1468,2.2065e-06,-6.7e-07,0.0,0 STARLINK-5970,1 56450U 23064C   24046.29483356 -.00000067  00000-0  22065-5 0  9995,2 56450  69.9983 244.0784 0002649 269.9388  90.1468 14.98328204 42758,6950.198,96.107,573.905,570.222,0.0
56450.0,STARLINK-5970,PAYLOAD,2024-02-15 13:29:05,14.98328359,0.0002662,69.9982,243.4052,269.9664,90.119,-1.3931e-06,-1.1e-06,0.0,0 STARLINK-5970,1 56450U 23064C   24046.56187381 -.00000110  00000-0 -13931-5 0  9996,2 56450  69.9982 243.4052 0002662 269.9664  90.1190 14.98328359 42438,6950.198,96.107,573.913,570.213,0.0
56450.0,STARLINK-5970,PAYLOAD,2024-02-15 19:53:38,14.98327743,0.0002686,69.9983,242.732,270.3083,89.7769,-1.0098e-05,-2.13e-06,0.0,0 STARLINK-5970,1 56450U 23064C   24046.82891469 -.00000213  00000-0 -10098-4 0  9998,2 56450  69.9983 242.7320 0002686 270.3083  89.7769 14.98327743 42472,6950.2,96.107,573.932,570.198,0.0
56450.0,STARLINK-5970,PAYLOAD,2024-02-16 13:31:06,14.98332618,0.0002641,69.9984,240.8803,271.0368,89.0489,1.4681e-05,8.2e-07,0.0,0 STARLINK-5970,1 56450U 23064C   24047.56327077  .00000082  00000-0  14681-4 0  9993,2 56450  69.9984 240.8803 0002641 271.0368  89.0489 14.98332618 42584,6950.185,96.107,573.885,570.214,0.0
56450.0,STARLINK-5970,PAYLOAD,2024-02-16 19:55:38,14.9833403,0.0002646,69.9985,240.2069,271.4443,88.6413,2.3786e-05,1.91e-06,0.0,0 STARLINK-5970,1 56450U 23064C   24047.83030912  .00000191  00000-0  23786-4 0  9999,2 56450  69.9985 240.2069 0002646 271.4443  88.6413 14.98334030 42982,6950.18,96.107,573.884,570.206,0.0
56450.0,STARLINK-5970,PAYLOAD,2024-02-16 21:31:46,14.98334267,0.0002645,69.9985,240.0386,271.4961,88.5895,2.6222e-05,2.2e-06,0.0,0 STARLINK-5970,1 56450U 23064C   24047.89706873  .00000220  00000-0  26222-4 0  9992,2 56450  69.9985 240.0386 0002645 271.4961  88.5895 14.98334267 42633,6950.18,96.107,573.883,570.206,0.0
56450.0,STARLINK-5970,PAYLOAD,2024-02-17 13:33:07,14.98327494,0.0002616,69.9986,238.3553,272.8056,87.2804,1.0474e-05,3.2e-07,0.0,0 STARLINK-5970,1 56450U 23064C   24048.56467278  .00000032  00000-0  10474-4 0  9993,2 56450  69.9986 238.3553 0002616 272.8056  87.2804 14.98327494 42739,6950.201,96.107,573.884,570.247,0.0
56450.0,STARLINK-5970,PAYLOAD,2024-02-17 19:57:40,14.98327165,0.0002613,69.9987,237.6821,272.6145,87.4715,1.1735e-05,4.7e-07,0.0,0 STARLINK-5970,1 56450U 23064C   24048.83171321  .00000047  00000-0  11735-4 0  9991,2 56450  69.9987 237.6821 0002613 272.6145  87.4715 14.98327165 43137,6950.202,96.107,573.883,570.251,0.0
56450.0,STARLINK-5970,PAYLOAD,2024-02-17 21:33:48,14.98327115,0.0002613,69.9987,237.5137,272.6901,87.3959,1.0534e-05,3.3e-07,0.0,0 STARLINK-5970,1 56450U 23064C   24048.89847335  .00000033  00000-0  10534-4 0  9993,2 56450  69.9987 237.5137 0002613 272.6901  87.3959 14.98327115 42780,6950.202,96.107,573.883,570.251,0.0
56450.0,STARLINK-5970,PAYLOAD,2024-02-18 15:11:16,14.98333917,0.0002605,69.9987,235.6621,269.5463,90.5398,-5.1666e-06,-1.55e-06,0.0,0 STARLINK-5970,1 56450U 23064C   24049.63282873 -.00000155  00000-0 -51666-5 0  9995,2 56450  69.9987 235.6621 0002605 269.5463  90.5398 14.98333917 42898,6950.181,96.107,573.856,570.235,0.0
56450.0,STARLINK-5970,PAYLOAD,2024-02-18 18:23:32,14.98333875,0.0002609,69.9987,235.3254,269.8316,90.2544,-4.8114e-06,-1.5e-06,0.0,0 STARLINK-5970,1 56450U 23064C   24049.76634842 -.00000150  00000-0 -48114-5 0  9995,2 56450  69.9987 235.3254 0002609 269.8316  90.2544 14.98333875 43277,6950.181,96.107,573.859,570.233,0.0
56450.0,STARLINK-5970,PAYLOAD,2024-02-18 21:35:48,14.98334455,0.0002599,69.9987,234.9886,270.2832,89.8029,2.9227e-06,-5.8e-07,0.0,0 STARLINK-5970,1 56450U 23064C   24049.89986751 -.00000058  00000-0  29227-5 0  9998,2 56450  69.9987 234.9886 0002599 270.2832  89.8029 14.98334455 42939,6950.179,96.107,573.85,570.238,0.0
56450.0,STARLINK-5970,PAYLOAD,2024-02-19 13:37:09,14.98327711,0.0002602,69.9988,233.3052,270.4433,89.6428,1.1757e-06,-7.9e-07,0.0,0 STARLINK-5970,1 56450U 23064C   24050.56747112 -.00000079  00000-0  11757-5 0  9992,2 56450  69.9988 233.3052 0002602 270.4433  89.6428 14.98327711 43032,6950.2,96.107,573.873,570.257,0.0
56450.0,STARLINK-5970,PAYLOAD,2024-02-19 20:01:41,14.98327014,0.0002602,69.9989,232.632,269.9736,90.1125,-2.7657e-06,-1.26e-06,0.0,0 STARLINK-5970,1 56450U 23064C   24050.83451187 -.00000126  00000-0 -27657-5 0  9996,2 56450  69.9989 232.6320 0002602 269.9736  90.1125 14.98327014 43433,6950.202,96.107,573.876,570.259,0.0
56450.0,STARLINK-5970,PAYLOAD,2024-02-19 21:37:49,14.98327034,0.0002594,69.999,232.4637,270.0389,90.0473,-2.4816e-06,-1.23e-06,0.0,0 STARLINK-5970,1 56450U 23064C   24050.90127188 -.00000123  00000-0 -24816-5 0  9996,2 56450  69.9990 232.4637 0002594 270.0389  90.0473 14.98327034 43089,6950.202,96.107,573.87,570.264,0.0
56450.0,STARLINK-5970,PAYLOAD,2024-02-20 13:39:10,14.98331952,0.0002679,69.9987,230.7799,270.7662,89.319,1.6631e-05,1.05e-06,0.0,0 STARLINK-5970,1 56450U 23064C   24051.56886789  .00000105  00000-0  16631-4 0  9991,2 56450  69.9987 230.7799 0002679 270.7662  89.3190 14.98331952 43182,6950.187,96.107,573.914,570.19,0.0
56450.0,STARLINK-5970,PAYLOAD,2024-02-20 18:27:34,14.98333699,0.0002683,69.9987,230.2749,270.7448,89.3404,7.6076e-06,-2e-08,0.0,0 STARLINK-5970,1 56450U 23064C   24051.76914666 -.00000002  00000-0  76076-5 0  9996,2 56450  69.9987 230.2749 0002683 270.7448  89.3404 14.98333699 43570,6950.181,96.107,573.911,570.182,0.0
56450.0,STARLINK-5970,PAYLOAD,2024-02-20 21:39:50,14.98333031,0.0002692,69.9987,229.9382,270.9313,89.1537,1.2649e-06,-7.8e-07,0.0,0 STARLINK-5970,1 56450U 23064C   24051.90266697 -.00000078  00000-0  12649-5 0  9995,2 56450  69.9987 229.9382 0002692 270.9313  89.1537 14.98333031 43239,6950.184,96.107,573.92,570.178,0.0
56450.0,STARLINK-5970,PAYLOAD,2024-02-21 13:41:11,14.98327987,0.000272,69.9989,228.2551,271.1279,88.9569,1.2429e-06,-7.8e-07,0.0,0 STARLINK-5970,1 56450U 23064C   24052.57026977 -.00000078  00000-0  12429-5 0  9990,2 56450  69.9989 228.2551 0002720 271.1279  88.9569 14.98327987 43333,6950.199,96.107,573.955,570.174,0.0
56450.0,STARLINK-5970,PAYLOAD,2024-02-21 20:05:43,14.98328355,0.0002728,69.9991,227.5818,271.2901,88.7946,3.715e-06,-4.9e-07,0.0,0 STARLINK-5970,1 56450U 23064C   24052.83730969 -.00000049  00000-0  37150-5 0  9998,2 56450  69.9991 227.5818 0002728 271.2901  88.7946 14.98328355 43736,6950.198,96.107,573.959,570.167,0.0
56450.0,STARLINK-5970,PAYLOAD,2024-02-21 21:41:51,14.9832904,0.0002728,69.9992,227.4135,271.3562,88.7284,1.0556e-05,3.3e-07,0.0,0 STARLINK-5970,1 56450U 23064C   24052.90406908  .00000033  00000-0  10556-4 0  9991,2 56450  69.9992 227.4135 0002728 271.3562  88.7284 14.98329040 43380,6950.196,96.107,573.957,570.165,0.0
56450.0,STARLINK-5970,PAYLOAD,2024-02-22 13:43:12,14.98331896,0.0002713,69.9993,225.7303,271.584,88.5008,-4.1281e-07,-9.8e-07,0.0,0 STARLINK-5970,1 56450U 23064C   24053.57166726 -.00000098  00000-0 -41281-6 0  9990,2 56450  69.9993 225.7303 0002713 271.5840  88.5008 14.98331896 43489,6950.187,96.107,573.938,570.166,0.0
56450.0,STARLINK-5970,PAYLOAD,2024-02-22 20:07:44,14.9833269,0.0002739,69.9993,225.0571,271.5674,88.5172,-2.599e-06,-1.24e-06,0.0,0 STARLINK-5970,1 56450U 23064C   24053.83870638 -.00000124  00000-0 -25990-5 0  9991,2 56450  69.9993 225.0571 0002739 271.5674  88.5172 14.98332690 43881,6950.185,96.107,573.953,570.146,0.0
56450.0,STARLINK-5970,PAYLOAD,2024-02-22 21:43:52,14.98333066,0.0002736,69.9994,224.8888,271.6108,88.4738,1.7917e-06,-7.2e-07,0.0,0 STARLINK-5970,1 56450U 23064C   24053.90546588 -.00000072  00000-0  17917-5 0  9994,2 56450  69.9994 224.8888 0002736 271.6108  88.4738 14.98333066 43537,6950.183,96.107,573.95,570.147,0.0
56450.0,STARLINK-5970,PAYLOAD,2024-02-23 13:45:12,14.98329667,0.0002755,69.9995,223.2056,270.9283,89.156,1.51e-05,8.7e-07,0.0,0 STARLINK-5970,1 56450U 23064C   24054.57306700  .00000087  00000-0  15100-4 0  9994,2 56450  69.9995 223.2056 0002755 270.9283  89.1560 14.98329667 43639,6950.194,96.107,573.974,570.144,0.0
